{"type": "FeatureCollection", "features": [ {"type": "Feature", "properties": {"norad_id": 36011, "name": "IRIDIUM 33 DEB", "group": "iridium-33-debris", "lat": -59.039422035002715, "lon": -140.90551655664095, "alt_km": 751.9149163858201, "timestamp": "2025-12-18T10:51:26.196436+00:00", "meta": {"OBJECT_NAME": "IRIDIUM 33 DEB", "OBJECT_ID": "1997-051US", "EPOCH": "2025-12-11T21:42:29.079072", "MEAN_MOTION": 14.41326157, "ECCENTRICITY": 0.0017563, "INCLINATION": 86.3411, "RA_OF_ASC_NODE": 35.7829, "ARG_OF_PERICENTER": 218.6873, "MEAN_ANOMALY": 266.0791, "EPHEMERIS_TYPE": 0, "CLASSIFICATION_TYPE": "U", "NORAD_CAT_ID": 36011, "ELEMENT_SET_NO": 999, "REV_AT_EPOCH": 64528, "BSTAR": 0.00076231, "MEAN_MOTION_DOT": 2.489e-05, "MEAN_MOTION_DDOT": 0}, "tle": {"line1": "1 36011U 97051US  25345.90450323  .00002489  00000+0  76231-3 0  9992", "line2": "2 36011  86.3411  35.7829 0017563 218.6873 266.0791 14.41326157645287"}}, "geometry": {"type": "Point", "coordinates": [-140.90551655664095, -59.039422035002715]}}, {"type": "Feature", "properties": {"norad_id": 36012, "name": "IRIDIUM 33 DEB", "group": "iridium-33-debris", "lat": 66.87278178282796, "lon": -46.39063844682167, "alt_km": 973.950399153845, "timestamp": "2025-12-18T10:51:26.196446+00:00", "meta": {"OBJECT_NAME": "IRIDIUM 33 DEB", "OBJECT_ID": "1997-051UT", "EPOCH": "2025-12-17T14:13:28.599168", "MEAN_MOTION": 14.19148234, "ECCENTRICITY": 0.02113779, "INCLINATION": 86.4407, "RA_OF_ASC_NODE": 305.5764, "ARG_OF_PERICENTER": 247.5973, "MEAN_ANOMALY": 110.2701, "EPHEMERIS_TYPE": 0, "CLASSIFICATION_TYPE": "U", "NORAD_CAT_ID": 36012, "ELEMENT_SET_NO": 999, "REV_AT_EPOCH": 65553, "BSTAR": 0.0037873246, "MEAN_MOTION_DOT": 9.924e-05, "MEAN_MOTION_DDOT": 0}, "tle": {"line1": "1 36012U 97051UT  25351.59269212  .00009924  00000+0  37873-2 0  9999", "line2": "2 36012  86.4407 305.5764 0211377 247.5973 110.2701 14.19148234655534"}}, "geometry": {"type": "Point", "coordinates": [-46.39063844682167, 66.87278178282796]}}, {"type": "Feature", "properties": {"norad_id": 36028, "name": "IRIDIUM 33 DEB", "group": "iridium-33-debris", "lat": -81.91663722953133, "lon": -82.9275059778378, "alt_km": 595.0100529078254, "timestamp": "2025-12-18T10:51:26.196457+00:00", "meta": {"OBJECT_NAME": "IRIDIUM 33 DEB", "OBJECT_ID": "1997-051VK", "EPOCH": "2025-12-17T14:21:03.374208", "MEAN_MOTION": 14.95530598, "ECCENTRICITY": 0.00210902, "INCLINATION": 86.3211, "RA_OF_ASC_NODE": 304.4126, "ARG_OF_PERICENTER": 38.6097, "MEAN_ANOMALY": 321.6636, "EPHEMERIS_TYPE": 0, "CLASSIFICATION_TYPE": "U", "NORAD_CAT_ID": 36028, "ELEMENT_SET_NO": 999, "REV_AT_EPOCH": 87197, "BSTAR": 0.0017395494, "MEAN_MOTION_DOT": 0.00019415, "MEAN_MOTION_DDOT": 0}, "tle": {"line1": "1 36028U 97051VK  25351.59795572  .00019415  00000+0  17395-2 0  9992", "line2": "2 36028  86.3211 304.4126 0021090  38.6097 321.6636 14.95530598871975"}}, "geometry": {"type": "Point", "coordinates": [-82.9275059778378, -81.91663722953133]}}, {"type": "Feature", "properties": {"norad_id": 36080, "name": "IRIDIUM 33 DEB", "group": "iridium-33-debris", "lat": -33.24708308075412, "lon": -172.08277747986062, "alt_km": 739.4019687646696, "timestamp": "2025-12-18T10:51:26.196467+00:00", "meta": {"OBJECT_NAME": "IRIDIUM 33 DEB", "OBJECT_ID": "1997-051VM", "EPOCH": "2025-12-17T07:18:52.852032", "MEAN_MOTION": 14.4662506, "ECCENTRICITY": 0.00186257, "INCLINATION": 86.3197, "RA_OF_ASC_NODE": 5.9988, "ARG_OF_PERICENTER": 142.3309, "MEAN_ANOMALY": 217.9202, "EPHEMERIS_TYPE": 0, "CLASSIFICATION_TYPE": "U", "NORAD_CAT_ID": 36080, "ELEMENT_SET_NO": 999, "REV_AT_EPOCH": 47480, "BSTAR": 0.00046202765, "MEAN_MOTION_DOT": 1.69e-05, "MEAN_MOTION_DDOT": 0}, "tle": {"line1": "1 36080U 97051VM  25351.30477838  .00001690  00000+0  46203-3 0  9998", "line2": "2 36080  86.3197   5.9988 0018625 142.3309 217.9202 14.46625060474806"}}, "geometry": {"type": "Point", "coordinates": [-172.08277747986062, -33.24708308075412]}}, {"type": "Feature", "properties": {"norad_id": 36083, "name": "IRIDIUM 33 DEB", "group": "iridium-33-debris", "lat": -55.357441440732636, "lon": -142.99568851789732, "alt_km": 739.466738064164, "timestamp": "2025-12-18T10:51:26.196477+00:00", "meta": {"OBJECT_NAME": "IRIDIUM 33 DEB", "OBJECT_ID": "1997-051VQ", "EPOCH": "2025-12-16T21:09:41.480640", "MEAN_MOTION": 14.43222397, "ECCENTRICITY": 0.00256692, "INCLINATION": 86.3437, "RA_OF_ASC_NODE": 32.3703, "ARG_OF_PERICENTER": 208.6135, "MEAN_ANOMALY": 151.3659, "EPHEMERIS_TYPE": 0, "CLASSIFICATION_TYPE": "U", "NORAD_CAT_ID": 36083, "ELEMENT_SET_NO": 999, "REV_AT_EPOCH": 85509, "BSTAR": 0.00040983827, "MEAN_MOTION_DOT": 1.403e-05, "MEAN_MOTION_DDOT": 0}, "tle": {"line1": "1 36083U 97051VQ  25350.88173010  .00001403  00000+0  40984-3 0  9990", "line2": "2 36083  86.3437  32.3703 0025669 208.6135 151.3659 14.43222397855098"}}, "geometry": {"type": "Point", "coordinates": [-142.99568851789732, -55.357441440732636]}}, {"type": "Feature", "properties": {"norad_id": 36390, "name": "IRIDIUM 33 DEB", "group": "iridium-33-debris", "lat": -41.04553648663174, "lon": -66.46260086256989, "alt_km": 677.1501766278498, "timestamp": "2025-12-18T10:51:26.196487+00:00", "meta": {"OBJECT_NAME": "IRIDIUM 33 DEB", "OBJECT_ID": "1997-051VU", "EPOCH": "2025-12-10T04:13:18.491808", "MEAN_MOTION": 14.73548967, "ECCENTRICITY": 0.00303441, "INCLINATION": 86.2912, "RA_OF_ASC_NODE": 300.5678, "ARG_OF_PERICENTER": 170.4809, "MEAN_ANOMALY": 189.6991, "EPHEMERIS_TYPE": 0, "CLASSIFICATION_TYPE": "U", "NORAD_CAT_ID": 36390, "ELEMENT_SET_NO": 999, "REV_AT_EPOCH": 66224, "BSTAR": 0.0016206136, "MEAN_MOTION_DOT": 0.00010646, "MEAN_MOTION_DDOT": 0}, "tle": {"line1": "1 36390U 97051VU  25344.17590847  .00010646  00000+0  16206-2 0  9995", "line2": "2 36390  86.2912 300.5678 0030344 170.4809 189.6991 14.73548967662240"}}, "geometry": {"type": "Point", "coordinates": [-66.46260086256989, -41.04553648663174]}}, {"type": "Feature", "properties": {"norad_id": 36483, "name": "IRIDIUM 33 DEB", "group": "iridium-33-debris", "lat": 85.7087681173625, "lon": 172.506760589389, "alt_km": 724.1046057128224, "timestamp": "2025-12-18T10:51:26.196496+00:00", "meta": {"OBJECT_NAME": "IRIDIUM 33 DEB", "OBJECT_ID": "1997-051VZ", "EPOCH": "2025-12-16T21:53:24.442080", "MEAN_MOTION": 14.45825155, "ECCENTRICITY": 0.00113618, "INCLINATION": 86.3797, "RA_OF_ASC_NODE": 50.7036, "ARG_OF_PERICENTER": 114.4564, "MEAN_ANOMALY": 245.7824, "EPHEMERIS_TYPE": 0, "CLASSIFICATION_TYPE": "U", "NORAD_CAT_ID": 36483, "ELEMENT_SET_NO": 999, "REV_AT_EPOCH": 65206, "BSTAR": 0.00037285473, "MEAN_MOTION_DOT": 1.343e-05, "MEAN_MOTION_DDOT": 0}, "tle": {"line1": "1 36483U 97051VZ  25350.91208845  .00001343  00000+0  37285-3 0  9996", "line2": "2 36483  86.3797  50.7036 0011361 114.4564 245.7824 14.45825155652065"}}, "geometry": {"type": "Point", "coordinates": [172.506760589389, 85.7087681173625]}}, {"type": "Feature", "properties": {"norad_id": 36490, "name": "IRIDIUM 33 DEB", "group": "iridium-33-debris", "lat": -73.91597033768467, "lon": -159.37799457957368, "alt_km": 652.2097604421315, "timestamp": "2025-12-18T10:51:26.196507+00:00", "meta": {"OBJECT_NAME": "IRIDIUM 33 DEB", "OBJECT_ID": "1997-051WG", "EPOCH": "2025-12-17T07:40:51.371328", "MEAN_MOTION": 14.76289273, "ECCENTRICITY": 0.00054274, "INCLINATION": 86.3656, "RA_OF_ASC_NODE": 8.3978, "ARG_OF_PERICENTER": 73.7746, "MEAN_ANOMALY": 286.407, "EPHEMERIS_TYPE": 0, "CLASSIFICATION_TYPE": "U", "NORAD_CAT_ID": 36490, "ELEMENT_SET_NO": 999, "REV_AT_EPOCH": 86552, "BSTAR": 0.0012339022, "MEAN_MOTION_DOT": 8.579e-05, "MEAN_MOTION_DDOT": 0}, "tle": {"line1": "1 36490U 97051WG  25351.32003902  .00008579  00000+0  12339-2 0  9997", "line2": "2 36490  86.3656   8.3978 0005427  73.7746 286.4070 14.76289273865527"}}, "geometry": {"type": "Point", "coordinates": [-159.37799457957368, -73.91597033768467]}}, {"type": "Feature", "properties": {"norad_id": 36493, "name": "IRIDIUM 33 DEB", "group": "iridium-33-debris", "lat": -48.64503112881922, "lon": 4.991753791403662, "alt_km": 677.4163937561743, "timestamp": "2025-12-18T10:51:26.196517+00:00", "meta": {"OBJECT_NAME": "IRIDIUM 33 DEB", "OBJECT_ID": "1997-051WK", "EPOCH": "2025-12-17T18:41:22.418880", "MEAN_MOTION": 14.65296376, "ECCENTRICITY": 0.0009595, "INCLINATION": 86.357, "RA_OF_ASC_NODE": 9.4417, "ARG_OF_PERICENTER": 347.2295, "MEAN_ANOMALY": 12.8673, "EPHEMERIS_TYPE": 0, "CLASSIFICATION_TYPE": "U", "NORAD_CAT_ID": 36493, "ELEMENT_SET_NO": 999, "REV_AT_EPOCH": 74592, "BSTAR": 0.00099210888, "MEAN_MOTION_DOT": 5.375e-05, "MEAN_MOTION_DDOT": 0}, "tle": {"line1": "1 36493U 97051WK  25351.77873170  .00005375  00000+0  99211-3 0  9997", "line2": "2 36493  86.3570   9.4417 0009595 347.2295  12.8673 14.65296376745924"}}, "geometry": {"type": "Point", "coordinates": [4.991753791403662, -48.64503112881922]}}, {"type": "Feature", "properties": {"norad_id": 37548, "name": "IRIDIUM 33 DEB", "group": "iridium-33-debris", "lat": -32.330244291008945, "lon": -136.80281964418126, "alt_km": 713.9425788303779, "timestamp": "2025-12-18T10:51:26.196527+00:00", "meta": {"OBJECT_NAME": "IRIDIUM 33 DEB", "OBJECT_ID": "1997-051XH", "EPOCH": "2025-12-15T20:39:30.861504", "MEAN_MOTION": 14.51326297, "ECCENTRICITY": 0.00258157, "INCLINATION": 86.3522, "RA_OF_ASC_NODE": 42.0105, "ARG_OF_PERICENTER": 178.4192, "MEAN_ANOMALY": 181.71, "EPHEMERIS_TYPE": 0, "CLASSIFICATION_TYPE": "U", "NORAD_CAT_ID": 37548, "ELEMENT_SET_NO": 999, "REV_AT_EPOCH": 65577, "BSTAR": 0.00067405053, "MEAN_MOTION_DOT": 2.715e-05, "MEAN_MOTION_DDOT": 0}, "tle": {"line1": "1 37548U 97051XH  25349.86077386  .00002715  00000+0  67405-3 0  9996", "line2": "2 37548  86.3522  42.0105 0025815 178.4192 181.7100 14.51326297655778"}}, "geometry": {"type": "Point", "coordinates": [-136.80281964418126, -32.330244291008945]}}]}